[{"OBJECT_NAME":"STARLINK-31298","OBJECT_ID":"2024-044R","EPOCH":"2026-03-09T19:21:22.042368","MEAN_MOTION":15.27567788,"ECCENTRICITY":7.093e-5,"INCLINATION":43.0002,"RA_OF_ASC_NODE":106.3495,"ARG_OF_PERICENTER":284.3027,"MEAN_ANOMALY":75.7746,"EPHEMERIS_TYPE":0,"CLASSIFICATION_TYPE":"U","NORAD_CAT_ID":59167,"ELEMENT_SET_NO":999,"REV_AT_EPOCH":11358,"BSTAR":-2.2173083e-5,"MEAN_MOTION_DOT":-8.72e-6,"MEAN_MOTION_DDOT":0},{"OBJECT_NAME":"TITAN 4B R\/B","OBJECT_ID":"2005-016B","EPOCH":"2026-03-09T20:27:57.848832","MEAN_MOTION":15.42682045,"ECCENTRICITY":0.00616552,"INCLINATION":56.9964,"RA_OF_ASC_NODE":245.9411,"ARG_OF_PERICENTER":20.2929,"MEAN_ANOMALY":340.0555,"EPHEMERIS_TYPE":0,"CLASSIFICATION_TYPE":"U","NORAD_CAT_ID":28647,"ELEMENT_SET_NO":999,"REV_AT_EPOCH":37707,"BSTAR":0.00046483736,"MEAN_MOTION_DOT":0.0002164,"MEAN_MOTION_DDOT":0}]
